{
  "links" : {
    "next" : "https://api.nasa.gov/neo/rest/v1/feed?start_date=1997-08-23&end_date=1997-08-23&detailed=true&api_key=t0TVs3DtDT2H8Oy2Zy8m2eVrNsAVKAexjcZXUckd",
    "prev" : "https://api.nasa.gov/neo/rest/v1/feed?start_date=1997-08-21&end_date=1997-08-21&detailed=true&api_key=t0TVs3DtDT2H8Oy2Zy8m2eVrNsAVKAexjcZXUckd",
    "self" : "https://api.nasa.gov/neo/rest/v1/feed?start_date=1997-08-22&end_date=1997-08-22&detailed=true&api_key=t0TVs3DtDT2H8Oy2Zy8m2eVrNsAVKAexjcZXUckd"
  },
  "element_count" : 5,
  "near_earth_objects" : {
    "1997-08-22" : [ {
      "links" : {
        "self" : "https://api.nasa.gov/neo/rest/v1/neo/3465951?api_key=t0TVs3DtDT2H8Oy2Zy8m2eVrNsAVKAexjcZXUckd"
      },
      "neo_reference_id" : "3465951",
      "name" : "(2009 QH6)",
      "nasa_jpl_url" : "http://ssd.jpl.nasa.gov/sbdb.cgi?sstr=3465951",
      "absolute_magnitude_h" : 22.7,
      "estimated_diameter" : {
        "kilometers" : {
          "estimated_diameter_min" : 0.0766575574,
          "estimated_diameter_max" : 0.1714115092
        },
        "meters" : {
          "estimated_diameter_min" : 76.6575573531,
          "estimated_diameter_max" : 171.4115092306
        },
        "miles" : {
          "estimated_diameter_min" : 0.0476327831,
          "estimated_diameter_max" : 0.1065101409
        },
        "feet" : {
          "estimated_diameter_min" : 251.5011804664,
          "estimated_diameter_max" : 562.3737359442
        }
      },
      "is_potentially_hazardous_asteroid" : false,
      "close_approach_data" : [ {
        "close_approach_date" : "1997-08-22",
        "epoch_date_close_approach" : 872233200000,
        "relative_velocity" : {
          "kilometers_per_second" : "8.1657743685",
          "kilometers_per_hour" : "29396.7877266266",
          "miles_per_hour" : "18266.0206849142"
        },
        "miss_distance" : {
          "astronomical" : "0.0645436814",
          "lunar" : "25.1074905396",
          "kilometers" : "9655597",
          "miles" : "5999710"
        },
        "orbiting_body" : "Earth"
      } ],
      "orbital_data" : {
        "orbit_id" : "14",
        "orbit_determination_date" : "2017-04-06 09:00:12",
        "orbit_uncertainty" : "7",
        "minimum_orbit_intersection" : ".00669281",
        "jupiter_tisserand_invariant" : "5.771",
        "epoch_osculation" : "2458000.5",
        "eccentricity" : ".1870194905052306",
        "semi_major_axis" : "1.059483137014553",
        "inclination" : "14.24739568896478",
        "ascending_node_longitude" : "323.8030848846003",
        "orbital_period" : "398.3267749349061",
        "perihelion_distance" : ".8613391405312079",
        "perihelion_argument" : "104.1623706380817",
        "aphelion_distance" : "1.257627133497898",
        "perihelion_time" : "2457936.044961484630",
        "mean_anomaly" : "58.25321149783364",
        "mean_motion" : ".9037805707608549",
        "equinox" : "J2000"
      }
    }, {
      "links" : {
        "self" : "https://api.nasa.gov/neo/rest/v1/neo/3664084?api_key=t0TVs3DtDT2H8Oy2Zy8m2eVrNsAVKAexjcZXUckd"
      },
      "neo_reference_id" : "3664084",
      "name" : "(2014 EZ48)",
      "nasa_jpl_url" : "http://ssd.jpl.nasa.gov/sbdb.cgi?sstr=3664084",
      "absolute_magnitude_h" : 18.8,
      "estimated_diameter" : {
        "kilometers" : {
          "estimated_diameter_min" : 0.4619074603,
          "estimated_diameter_max" : 1.0328564805
        },
        "meters" : {
          "estimated_diameter_min" : 461.9074602816,
          "estimated_diameter_max" : 1032.8564805039
        },
        "miles" : {
          "estimated_diameter_min" : 0.2870159005,
          "estimated_diameter_max" : 0.6417870641
        },
        "feet" : {
          "estimated_diameter_min" : 1515.4444719902,
          "estimated_diameter_max" : 3388.6368554964
        }
      },
      "is_potentially_hazardous_asteroid" : false,
      "close_approach_data" : [ {
        "close_approach_date" : "1997-08-22",
        "epoch_date_close_approach" : 872233200000,
        "relative_velocity" : {
          "kilometers_per_second" : "20.0835194084",
          "kilometers_per_hour" : "72300.6698700697",
          "miles_per_hour" : "44924.8245645442"
        },
        "miss_distance" : {
          "astronomical" : "0.3949601354",
          "lunar" : "153.6394958496",
          "kilometers" : "59085196",
          "miles" : "36713840"
        },
        "orbiting_body" : "Earth"
      } ],
      "orbital_data" : {
        "orbit_id" : "88",
        "orbit_determination_date" : "2017-04-06 08:42:04",
        "orbit_uncertainty" : "3",
        "minimum_orbit_intersection" : ".264371",
        "jupiter_tisserand_invariant" : "3.289",
        "epoch_osculation" : "2458000.5",
        "eccentricity" : ".564232855848358",
        "semi_major_axis" : "2.254905923781011",
        "inclination" : "25.51210678064689",
        "ascending_node_longitude" : "178.8223431780298",
        "orbital_period" : "1236.776054445421",
        "perihelion_distance" : ".9826139147366711",
        "perihelion_argument" : "82.01389631097396",
        "aphelion_distance" : "3.52719793282535",
        "perihelion_time" : "2458057.474570011324",
        "mean_anomaly" : "343.4158778136484",
        "mean_motion" : ".2910793742375831",
        "equinox" : "J2000"
      }
    } ]
  }
}